[{"OBJECT_NAME":"NANOSAT-1","OBJECT_ID":"2004-049B","EPOCH":"2026-03-09T22:09:44.581824","MEAN_MOTION":14.79922101,"ECCENTRICITY":0.00029678,"INCLINATION":98.2096,"RA_OF_ASC_NODE":203.2649,"ARG_OF_PERICENTER":243.7853,"MEAN_ANOMALY":116.3053,"EPHEMERIS_TYPE":0,"CLASSIFICATION_TYPE":"U","NORAD_CAT_ID":28493,"ELEMENT_SET_NO":999,"REV_AT_EPOCH":14076,"BSTAR":0.00025095221,"MEAN_MOTION_DOT":1.84e-5,"MEAN_MOTION_DDOT":0},{"OBJECT_NAME":"KUIPER-00187","OBJECT_ID":"2025-301J","EPOCH":"2026-03-09T23:31:50.478240","MEAN_MOTION":14.79912825,"ECCENTRICITY":6.188e-5,"INCLINATION":51.9028,"RA_OF_ASC_NODE":79.3379,"ARG_OF_PERICENTER":81.4352,"MEAN_ANOMALY":278.6681,"EPHEMERIS_TYPE":0,"CLASSIFICATION_TYPE":"U","NORAD_CAT_ID":67141,"ELEMENT_SET_NO":999,"REV_AT_EPOCH":1356,"BSTAR":0.00060978293,"MEAN_MOTION_DOT":4.428e-5,"MEAN_MOTION_DDOT":0}]
